[{"OBJECT_NAME":"CENTISPACE-1 S6","OBJECT_ID":"2022-126B","EPOCH":"2026-03-09T21:15:48.172608","MEAN_MOTION":14.62129457,"ECCENTRICITY":0.00134492,"INCLINATION":54.9982,"RA_OF_ASC_NODE":251.6889,"ARG_OF_PERICENTER":194.8443,"MEAN_ANOMALY":165.2158,"EPHEMERIS_TYPE":0,"CLASSIFICATION_TYPE":"U","NORAD_CAT_ID":54021,"ELEMENT_SET_NO":999,"REV_AT_EPOCH":18247,"BSTAR":0.0002040301,"MEAN_MOTION_DOT":8.46e-6,"MEAN_MOTION_DDOT":0},{"OBJECT_NAME":"NOAA 16 DEB","OBJECT_ID":"2000-055RH","EPOCH":"2026-03-07T12:17:50.203968","MEAN_MOTION":14.51704686,"ECCENTRICITY":0.00374941,"INCLINATION":98.9818,"RA_OF_ASC_NODE":270.8067,"ARG_OF_PERICENTER":64.819,"MEAN_ANOMALY":295.6884,"EPHEMERIS_TYPE":0,"CLASSIFICATION_TYPE":"U","NORAD_CAT_ID":42365,"ELEMENT_SET_NO":999,"REV_AT_EPOCH":52395,"BSTAR":0.0025329544,"MEAN_MOTION_DOT":0.00010224,"MEAN_MOTION_DDOT":0}]
